start=new Date('2022-05-30T00:00:00.000Z').valueOf();
sats=[{"RA_OF_ASC_NODE":"110.2500","APOAPSIS":"523.885","OBJECT_NAME":"STARLINK-1203","MEAN_ANOMALY":"293.9117","INCLINATION":"52.9792","CENTER_NAME":"EARTH","SEMIMAJOR_AXIS":"6899.973","FILE":"3470904","GP_ID":"204852870","SITE":"AFETR","TLE_LINE2":"2 45202  52.9792 110.2500 0002966  66.2185 293.9117 15.14717486126947","EPOCH":"2022-05-29T07:17:58.566048","BSTAR":"0.00112000000000","ELEMENT_SET_NO":"999","REF_FRAME":"TEME","NORAD_CAT_ID":"45202","COUNTRY_CODE":"US","OBJECT_TYPE":"PAYLOAD","PERIOD":"95.067","MEAN_MOTION_DDOT":"0.0000000000000","REV_AT_EPOCH":"12694","TLE_LINE1":"1 45202U 20012AA  22149.30415007  .00020749  00000-0  11200-2 0  9994","ARG_OF_PERICENTER":"66.2185","EPHEMERIS_TYPE":"0","MEAN_MOTION":"15.14717486","CLASSIFICATION_TYPE":"U","RCS_SIZE":"LARGE","ECCENTRICITY":"0.00029660","MEAN_ELEMENT_THEORY":"SGP4","OBJECT_ID":"2020-012AA","DECAY_DATE":null,"MEAN_MOTION_DOT":"0.00020749","LAUNCH_DATE":"2020-02-17","PERIAPSIS":"519.792","TIME_SYSTEM":"UTC"},{"INCLINATION":"53.0541","CENTER_NAME":"EARTH","SEMIMAJOR_AXIS":"6925.357","RA_OF_ASC_NODE":"103.5225","MEAN_ANOMALY":"309.4500","OBJECT_NAME":"STARLINK-1206","APOAPSIS":"548.871","ELEMENT_SET_NO":"999","OBJECT_TYPE":"PAYLOAD","COUNTRY_CODE":"US","PERIOD":"95.592","MEAN_MOTION_DDOT":"0.0000000000000","REF_FRAME":"TEME","NORAD_CAT_ID":"45204","SITE":"AFETR","FILE":"3470904","GP_ID":"204851623","TLE_LINE2":"2 45204  53.0541 103.5225 0002381  50.6700 309.4500 15.06397338127078","BSTAR":"0.00018796000000","EPOCH":"2022-05-29T06:43:23.327904","MEAN_MOTION":"15.06397338","CLASSIFICATION_TYPE":"U","REV_AT_EPOCH":"12707","TLE_LINE1":"1 45204U 20012AC  22149.28013111  .00002519  00000-0  18796-3 0  9996","ARG_OF_PERICENTER":"50.6700","EPHEMERIS_TYPE":"0","LAUNCH_DATE":"2020-02-17","TIME_SYSTEM":"UTC","PERIAPSIS":"545.573","MEAN_ELEMENT_THEORY":"SGP4","ECCENTRICITY":"0.00023810","RCS_SIZE":"LARGE","OBJECT_ID":"2020-012AC","DECAY_DATE":null,"MEAN_MOTION_DOT":"0.00002519"},{"LAUNCH_DATE":"2020-02-17","TIME_SYSTEM":"UTC","PERIAPSIS":"545.867","OBJECT_ID":"2020-012AD","MEAN_ELEMENT_THEORY":"SGP4","ECCENTRICITY":"0.00019810","RCS_SIZE":"LARGE","MEAN_MOTION_DOT":"-0.00000188","DECAY_DATE":null,"CLASSIFICATION_TYPE":"U","MEAN_MOTION":"15.06391590","TLE_LINE1":"1 45205U 20012AD  22149.83302514 -.00000188  00000-0  63220-5 0  9991","REV_AT_EPOCH":"12716","ARG_OF_PERICENTER":"58.2831","EPHEMERIS_TYPE":"0","ELEMENT_SET_NO":"999","COUNTRY_CODE":"US","MEAN_MOTION_DDOT":"0.0000000000000","OBJECT_TYPE":"PAYLOAD","PERIOD":"95.593","REF_FRAME":"TEME","NORAD_CAT_ID":"45205","SITE":"AFETR","FILE":"3471362","GP_ID":"204888732","EPOCH":"2022-05-29T19:59:33.372096","BSTAR":"0.00000632200000","TLE_LINE2":"2 45205  53.0541 101.0221 0001981  58.2831 301.8351 15.06391590127166","SEMIMAJOR_AXIS":"6925.374","CENTER_NAME":"EARTH","INCLINATION":"53.0541","MEAN_ANOMALY":"301.8351","OBJECT_NAME":"STARLINK-1208","APOAPSIS":"548.611","RA_OF_ASC_NODE":"101.0221"},{"COUNTRY_CODE":"US","OBJECT_TYPE":"PAYLOAD","PERIOD":"95.592","MEAN_MOTION_DDOT":"0.0000000000000","REF_FRAME":"TEME","NORAD_CAT_ID":"45206","ELEMENT_SET_NO":"999","TLE_LINE2":"2 45206  53.0535  80.9063 0001912  55.7985 304.3185 15.06395639126479","EPOCH":"2022-05-29T20:39:21.808512","BSTAR":"-0.00010185000000","SITE":"AFETR","FILE":"3471362","GP_ID":"204887485","INCLINATION":"53.0535","SEMIMAJOR_AXIS":"6925.362","CENTER_NAME":"EARTH","RA_OF_ASC_NODE":"80.9063","MEAN_ANOMALY":"304.3185","OBJECT_NAME":"STARLINK-1209","APOAPSIS":"548.551","TIME_SYSTEM":"UTC","PERIAPSIS":"545.903","LAUNCH_DATE":"2020-02-17","DECAY_DATE":null,"MEAN_MOTION_DOT":"-0.00001798","MEAN_ELEMENT_THEORY":"SGP4","RCS_SIZE":"LARGE","ECCENTRICITY":"0.00019120","OBJECT_ID":"2020-012AE","MEAN_MOTION":"15.06395639","CLASSIFICATION_TYPE":"U","ARG_OF_PERICENTER":"55.7985","EPHEMERIS_TYPE":"0","REV_AT_EPOCH":"12647","TLE_LINE1":"1 45206U 20012AE  22149.86066908 -.00001798  00000-0 -10185-3 0  9998"},{"TLE_LINE1":"1 45207U 20012AF  22149.85513728  .00000980  00000-0  84666-4 0  9991","REV_AT_EPOCH":"12714","EPHEMERIS_TYPE":"0","ARG_OF_PERICENTER":"59.8085","MEAN_MOTION":"15.06402388","CLASSIFICATION_TYPE":"U","MEAN_ELEMENT_THEORY":"SGP4","RCS_SIZE":"LARGE","ECCENTRICITY":"0.00024350","OBJECT_ID":"2020-012AF","DECAY_DATE":null,"MEAN_MOTION_DOT":"0.00000980","LAUNCH_DATE":"2020-02-17","TIME_SYSTEM":"UTC","PERIAPSIS":"545.520","RA_OF_ASC_NODE":"100.9288","MEAN_ANOMALY":"300.3145","OBJECT_NAME":"STARLINK-1210","APOAPSIS":"548.893","INCLINATION":"53.0529","SEMIMAJOR_AXIS":"6925.341","CENTER_NAME":"EARTH","SITE":"AFETR","FILE":"3471362","GP_ID":"204887735","TLE_LINE2":"2 45207  53.0529 100.9288 0002435  59.8085 300.3145 15.06402388127149","BSTAR":"0.00008466600000","EPOCH":"2022-05-29T20:31:23.860992","ELEMENT_SET_NO":"999","OBJECT_TYPE":"PAYLOAD","COUNTRY_CODE":"US","MEAN_MOTION_DDOT":"0.0000000000000","PERIOD":"95.592","NORAD_CAT_ID":"45207","REF_FRAME":"TEME"},{"CLASSIFICATION_TYPE":"U","MEAN_MOTION":"15.05582449","ARG_OF_PERICENTER":"65.9020","EPHEMERIS_TYPE":"0","TLE_LINE1":"1 45208U 20012AG  22149.60506186  .00001477  00000-0  12055-3 0  9999","REV_AT_EPOCH":"12700","TIME_SYSTEM":"UTC","PERIAPSIS":"548.581","LAUNCH_DATE":"2020-02-17","MEAN_MOTION_DOT":"0.00001477","DECAY_DATE":null,"OBJECT_ID":"2020-012AG","MEAN_ELEMENT_THEORY":"SGP4","RCS_SIZE":"LARGE","ECCENTRICITY":"0.00016440","CENTER_NAME":"EARTH","SEMIMAJOR_AXIS":"6927.855","INCLINATION":"53.0019","MEAN_ANOMALY":"294.2140","OBJECT_NAME":"STARLINK-1211","APOAPSIS":"550.859","RA_OF_ASC_NODE":"102.0602","MEAN_MOTION_DDOT":"0.0000000000000","COUNTRY_CODE":"US","OBJECT_TYPE":"PAYLOAD","PERIOD":"95.644","NORAD_CAT_ID":"45208","REF_FRAME":"TEME","ELEMENT_SET_NO":"999","EPOCH":"2022-05-29T14:31:17.344704","BSTAR":"0.00012055000000","TLE_LINE2":"2 45208  53.0019 102.0602 0001644  65.9020 294.2140 15.05582449127002","SITE":"AFETR","FILE":"3471362","GP_ID":"204887985"},{"ARG_OF_PERICENTER":"282.4657","EPHEMERIS_TYPE":"0","TLE_LINE1":"1 45209U 20012AH  22149.81286787 -.00009546  00000-0 -54213-4 0  9995","REV_AT_EPOCH":"12937","MEAN_MOTION":"15.76701258","CLASSIFICATION_TYPE":"U","DECAY_DATE":null,"MEAN_MOTION_DOT":"-0.00009546","MEAN_ELEMENT_THEORY":"SGP4","RCS_SIZE":"LARGE","ECCENTRICITY":"0.00089080","OBJECT_ID":"2020-012AH","TIME_SYSTEM":"UTC","PERIAPSIS":"333.812","LAUNCH_DATE":"2020-02-17","RA_OF_ASC_NODE":"297.3348","MEAN_ANOMALY":"77.5365","OBJECT_NAME":"STARLINK-1218","APOAPSIS":"345.781","INCLINATION":"53.0448","CENTER_NAME":"EARTH","SEMIMAJOR_AXIS":"6717.931","TLE_LINE2":"2 45209  53.0448 297.3348 0008908 282.4657  77.5365 15.76701258129378","BSTAR":"-0.00005421300000","EPOCH":"2022-05-29T19:30:31.783968","SITE":"AFETR","GP_ID":"204888232","FILE":"3471362","MEAN_MOTION_DDOT":"0.0000000000000","COUNTRY_CODE":"US","OBJECT_TYPE":"PAYLOAD","PERIOD":"91.330","NORAD_CAT_ID":"45209","REF_FRAME":"TEME","ELEMENT_SET_NO":"999"},{"RA_OF_ASC_NODE":"102.1249","OBJECT_NAME":"STARLINK-1219","MEAN_ANOMALY":"309.6040","APOAPSIS":"548.517","INCLINATION":"53.0559","SEMIMAJOR_AXIS":"6925.350","CENTER_NAME":"EARTH","TLE_LINE2":"2 45210  53.0559 102.1249 0001879  50.5115 309.6040 15.06399435126996","BSTAR":"0.00004933100000","EPOCH":"2022-05-29T14:14:33.169344","SITE":"AFETR","GP_ID":"204886985","FILE":"3471362","COUNTRY_CODE":"US","OBJECT_TYPE":"PAYLOAD","MEAN_MOTION_DDOT":"0.0000000000000","PERIOD":"95.592","REF_FRAME":"TEME","NORAD_CAT_ID":"45210","ELEMENT_SET_NO":"999","EPHEMERIS_TYPE":"0","ARG_OF_PERICENTER":"50.5115","REV_AT_EPOCH":"12699","TLE_LINE1":"1 45210U 20012AJ  22149.59343946  .00000453  00000-0  49331-4 0  9994","MEAN_MOTION":"15.06399435","CLASSIFICATION_TYPE":"U","DECAY_DATE":null,"MEAN_MOTION_DOT":"0.00000453","MEAN_ELEMENT_THEORY":"SGP4","RCS_SIZE":"LARGE","ECCENTRICITY":"0.00018790","OBJECT_ID":"2020-012AJ","TIME_SYSTEM":"UTC","PERIAPSIS":"545.914","LAUNCH_DATE":"2020-02-17"},{"CLASSIFICATION_TYPE":"U","MEAN_MOTION":"15.06399211","TLE_LINE1":"1 45212U 20012AL  22149.56025965 -.00000032  00000-0  16770-4 0  9996","REV_AT_EPOCH":"12705","EPHEMERIS_TYPE":"0","ARG_OF_PERICENTER":"59.0572","LAUNCH_DATE":"2020-02-17","PERIAPSIS":"545.860","TIME_SYSTEM":"UTC","OBJECT_ID":"2020-012AL","RCS_SIZE":"LARGE","ECCENTRICITY":"0.00019580","MEAN_ELEMENT_THEORY":"SGP4","MEAN_MOTION_DOT":"-0.00000032","DECAY_DATE":null,"CENTER_NAME":"EARTH","SEMIMAJOR_AXIS":"6925.351","INCLINATION":"53.0553","APOAPSIS":"548.572","MEAN_ANOMALY":"301.0610","OBJECT_NAME":"STARLINK-1231","RA_OF_ASC_NODE":"102.2629","ELEMENT_SET_NO":"999","NORAD_CAT_ID":"45212","REF_FRAME":"TEME","OBJECT_TYPE":"PAYLOAD","COUNTRY_CODE":"US","MEAN_MOTION_DDOT":"0.0000000000000","PERIOD":"95.592","FILE":"3470904","GP_ID":"204852871","SITE":"AFETR","BSTAR":"0.00001677000000","EPOCH":"2022-05-29T13:26:46.433760","TLE_LINE2":"2 45212  53.0553 102.2629 0001958  59.0572 301.0610 15.06399211127053"},{"ECCENTRICITY":"0.00034690","RCS_SIZE":"LARGE","MEAN_ELEMENT_THEORY":"SGP4","OBJECT_ID":"2020-012AM","DECAY_DATE":null,"MEAN_MOTION_DOT":"0.00009480","LAUNCH_DATE":"2020-02-17","PERIAPSIS":"445.661","TIME_SYSTEM":"UTC","TLE_LINE1":"1 45213U 20012AM  22149.50797317  .00009480  00000-0  24884-3 0  9997","REV_AT_EPOCH":"12747","EPHEMERIS_TYPE":"0","ARG_OF_PERICENTER":"130.3426","MEAN_MOTION":"15.39350965","CLASSIFICATION_TYPE":"U","GP_ID":"204851624","FILE":"3470904","SITE":"AFETR","TLE_LINE2":"2 45213  53.0607  75.9892 0003469 130.3426 229.7881 15.39350965127473","BSTAR":"0.00024884000000","EPOCH":"2022-05-29T12:11:28.881888","ELEMENT_SET_NO":"999","REF_FRAME":"TEME","NORAD_CAT_ID":"45213","COUNTRY_CODE":"US","OBJECT_TYPE":"PAYLOAD","MEAN_MOTION_DDOT":"0.0000000000000","PERIOD":"93.546","RA_OF_ASC_NODE":"75.9892","APOAPSIS":"450.397","MEAN_ANOMALY":"229.7881","OBJECT_NAME":"STARLINK-1232","INCLINATION":"53.0607","SEMIMAJOR_AXIS":"6826.164","CENTER_NAME":"EARTH"}];
